0 YAOGAN 4
1 33446U 08061A   13282.46386713  .00000618  00000-0  99216-4 0  3450
2 33446 097.7253 331.7282 0017253 358.2431 001.8719 14.74853554261387
0 YAOGAN 4
1 33446U 08061A   13282.80308954  .00000555  00000-0  89800-4 0  3468
2 33446 097.7254 332.0522 0017247 357.1809 002.9271 14.74853506261437
0 YAOGAN 4
1 33446U 08061A   13283.14231254  .00000559  00000-0  90324-4 0  3472
2 33446 097.7256 332.3758 0017210 356.0531 004.0542 14.74853955261480
0 YAOGAN 4
1 33446U 08061A   13283.34584595  .00000521  00000-0  84665-4 0  3484
2 33446 097.7256 332.5700 0017195 355.4174 004.6868 14.74854003261513
0 YAOGAN 4
1 33446U 08061A   13283.68506848  .00000535  00000-0  86757-4 0  3485
2 33446 097.7254 332.8934 0017146 354.4100 005.6929 14.74854561261560
0 YAOGAN 4
1 33446U 08061A   13283.82075715  .00000473  00000-0  77668-4 0  3498
2 33446 097.7255 333.0230 0017147 354.0471 006.0507 14.74854287261585
0 YAOGAN 4
1 33446U 08061A   13284.15997976  .00000556  00000-0  89913-4 0  3507
2 33446 097.7254 333.3463 0017082 352.6588 007.4408 14.74855289261630
0 YAOGAN 4
1 33446U 08061A   13284.49920127  .00000469  00000-0  77052-4 0  3513
2 33446 097.7253 333.6700 0017067 351.5365 008.5555 14.74855337261684
0 YAOGAN 4
1 33446U 08061A   13285.51686631  .00000707  00000-0  11243-3 0  3543
2 33446 097.7254 334.6410 0017016 348.1040 011.9773 14.74857746261833
0 YAOGAN 4
1 33446U 08061A   13285.85608775  .00000708  00000-0  11263-3 0  3557
2 33446 097.7254 334.9649 0016991 347.0890 012.9868 14.74858081261886
0 YAOGAN 4
1 33446U 08061A   13286.19530933  .00000696  00000-0  11082-3 0  3561
2 33446 097.7252 335.2887 0016876 345.8643 014.2093 14.74858558261936
0 YAOGAN 4
1 33446U 08061A   13286.53453071  .00000675  00000-0  10772-3 0  3579
2 33446 097.7251 335.6122 0016874 344.7197 015.3501 14.74858971261981
0 YAOGAN 4
1 33446U 08061A   13286.87375237  .00000527  00000-0  85589-4 0  3589
2 33446 097.7250 335.9357 0016890 343.5590 016.5038 14.74858449262030
0 YAOGAN 4
1 33446U 08061A   13287.21297421  .00000471  00000-0  77259-4 0  3590
2 33446 097.7253 336.2595 0016837 342.4027 017.6595 14.74858691262089
0 YAOGAN 4
1 33446U 08061A   13287.55219580  .00000344  00000-0  58439-4 0  3607
2 33446 097.7253 336.5831 0016824 341.2860 018.7729 14.74858529262130
0 YAOGAN 4
1 33446U 08061A   13287.89141736  .00000348  00000-0  58930-4 0  3612
2 33446 097.7253 336.9068 0016851 340.2010 019.8538 14.74858708262186
0 YAOGAN 4
1 33446U 08061A   13288.23063838  .00000449  00000-0  74003-4 0  3629
2 33446 097.7250 337.2305 0016860 339.0259 021.0268 14.74859646262235
0 YAOGAN 4
1 33446U 08061A   13288.50201491  .00000489  00000-0  79927-4 0  3633
2 33446 097.7250 337.4895 0016817 338.1667 021.8828 14.74860185262270
0 YAOGAN 4
1 33446U 08061A   13288.84123590  .00000544  00000-0  88113-4 0  3643
2 33446 097.7251 337.8132 0016774 336.9952 023.0517 14.74860786262326
0 YAOGAN 4
1 33446U 08061A   13289.18045614  .00000678  00000-0  10813-3 0  3651
2 33446 097.7248 338.1371 0016807 335.9564 024.0873 14.74862041262373
0 YAOGAN 4
1 33446U 08061A   13289.51967624  .00000799  00000-0  12606-3 0  3669
2 33446 097.7248 338.4609 0016795 334.9406 025.0993 14.74863151262423
0 YAOGAN 4
1 33446U 08061A   13289.85889663  .00000767  00000-0  12130-3 0  3670
2 33446 097.7246 338.7846 0016745 333.9475 026.0867 14.74863304262473
0 YAOGAN 4
1 33446U 08061A   13290.19811735  .00000839  00000-0  13208-3 0  3682
2 33446 097.7247 339.1083 0016735 332.8775 027.1574 14.74864301262523
0 YAOGAN 4
1 33446U 08061A   13290.40164914  .00000850  00000-0  13371-3 0  3691
2 33446 097.7244 339.3023 0016731 332.1671 027.8644 14.74864711262553
0 YAOGAN 4
1 33446U 08061A   13290.67302497  .00000819  00000-0  12906-3 0  3700
2 33446 097.7245 339.5614 0016711 331.2472 028.7804 14.74865034262590
0 YAOGAN 4
1 33446U 08061A   13290.87655717  .00000772  00000-0  12211-3 0  3716
2 33446 097.7248 339.7558 0016686 330.6629 029.3615 14.74864974262623
0 YAOGAN 4
1 33446U 08061A   13291.21577731  .00000708  00000-0  11263-3 0  3720
2 33446 097.7250 340.0797 0016642 329.4163 030.6067 14.74865360262678
0 YAOGAN 4
1 33446U 08061A   13291.55499753  .00000634  00000-0  10151-3 0  3738
2 33446 097.7250 340.4034 0016592 328.2579 031.7633 14.74865552262728
0 YAOGAN 4
1 33446U 08061A   13291.89421743  .00000678  00000-0  10805-3 0  3744
2 33446 097.7252 340.7274 0016569 327.2470 032.7710 14.74866092262774
0 YAOGAN 4
1 33446U 08061A   13292.23343722  .00000688  00000-0  10952-3 0  3758
2 33446 097.7251 341.0514 0016595 325.8861 034.1314 14.74866857262822
0 YAOGAN 4
1 33446U 08061A   13292.50481212  .00000720  00000-0  11430-3 0  3765
2 33446 097.7251 341.3106 0016560 325.0273 034.9853 14.74867482262868
0 YAOGAN 4
1 33446U 08061A   13292.84403147  .00000713  00000-0  11334-3 0  3779
2 33446 097.7251 341.6343 0016456 323.7898 036.2188 14.74867822262916
0 YAOGAN 4
1 33446U 08061A   13293.18325083  .00000762  00000-0  12063-3 0  3784
2 33446 097.7252 341.9580 0016469 322.6666 037.3409 14.74868699262964
0 YAOGAN 4
1 33446U 08061A   13293.52246975  .00000874  00000-0  13732-3 0  3793
2 33446 097.7252 342.2819 0016410 321.5808 038.4252 14.74869835263013
0 YAOGAN 4
1 33446U 08061A   13293.86168841  .00000751  00000-0  11895-3 0  3809
2 33446 097.7249 342.6053 0016283 320.2667 039.7308 14.74869511263062
0 YAOGAN 4
1 33446U 08061A   13294.20090763  .00000788  00000-0  12448-3 0  3811
2 33446 097.7249 342.9290 0016211 318.7801 041.2185 14.74870349263119
0 YAOGAN 4
1 33446U 08061A   13294.54012659  .00000724  00000-0  11499-3 0  3822
2 33446 097.7248 343.2526 0016197 317.6572 042.3392 14.74870677263161
0 YAOGAN 4
1 33446U 08061A   13294.87934544  .00000678  00000-0  10811-3 0  3830
2 33446 097.7247 343.5764 0016227 316.4119 043.5793 14.74870725263213
0 YAOGAN 4
1 33446U 08061A   13295.21856448  .00000596  00000-0  95851-4 0  3843
2 33446 097.7245 343.9003 0016182 315.1694 044.8209 14.74870949263264
0 YAOGAN 4
1 33446U 08061A   13295.55778336  .00000551  00000-0  89170-4 0  3858
2 33446 097.7243 344.2237 0016143 314.0625 045.9263 14.74871261263310
0 YAOGAN 4
1 33446U 08061A   13295.82915853  .00000490  00000-0  80158-4 0  3865
2 33446 097.7238 344.4825 0016114 313.1560 046.8293 14.74871086263357
0 YAOGAN 4
1 33446U 08061A   13296.23622068  .00000561  00000-0  90740-4 0  3872
2 33446 097.7233 344.8708 0016123 311.8034 048.1806 14.74872119263417
